CS2                     
1 49262U 21088C   26068.73485932  .00018033  00000+0  56178-3 0  9999
2 49262  97.3928 134.2907 0011637  82.3491 277.9072 15.33255930245263
STARLINK-32808          
1 62863U 25022K   26068.46709945  .00015019  00000+0  51852-3 0  9991
2 62863  53.1575 130.8162 0001034  77.7173 282.3943 15.30177500 61865
